#dP2024  4  4  0  0  0.00000000      96 __u+U IGS20 EXT  IAC
## 2308 345600.00000000   900.00000000 60404 0.0000000000000
+  119   C06C07C08C09C10C11C12C13C14C16C19C20C21C22C23C24C25
+        C26C27C28C29C30C32C33C34C35C36C37C38C39C40C41C42C43
+        C44C45C46E02E03E04E05E07E08E09E10E11E12E13E15E18E19
+        E21E24E25E26E27E30E31E33E34E36G01G02G03G04G05G06G07
+        G08G09G10G11G12G13G14G15G16G17G18G19G20G21G22G23G24
+        G25G26G27G28G29G30G31G32J02J03J04R01R02R03R04R05R07
+        R08R09R11R12R13R14R15R16R17R18R19R20R21R22R24R25R26
++        11  9  9 10  8 10  8 10 10 11  8  9  8  9  9 10  9
++        10  8  8  9  8  9  9  9  8 10 10 10 12  9  8  8 10
++         9  9  9  8  9  8  8  8  8  8  8  8  8  8  9  9  8
++         9  8  8  8  9  9  8  8  9  8  8  8  8  8  8  9  9
++         9  8  8 10  9  9  8  8  9  9  8  8  8  9  8  8  8
++         9  9  9  9  8  9  8  8 10 10  0  9  9  8  9  9  9
++         8  9  9  9 10  9  9 10  8  9 10 10  8  9  8  9  8
%c M  cc GPS ccc cccc cccc cccc cccc ccccc ccccc ccccc ccccc
%c cc cc ccc ccc cccc cccc cccc cccc ccccc ccccc ccccc ccccc
%f  0.0000000  0.000000000  0.00000000000  0.000000000000000
%f  0.0000000  0.000000000  0.00000000000  0.000000000000000
%i    0    0    0    0      0      0      0      0         0
%i    0    0    0    0      0      0      0      0         0
/* IAC                                ULTRA-RAPID PREDICTION
/* S/V CLOCKS ARE ALIGNED TO GNSS TIME                      
/* G:C1WC2W R:C1PC2P E:C1XC5X C:C2IC6I J:C1CC2S             
/* PCV:IGS20_2290 OL/AL:FES2004  NONE     YN ORB:CoN CLK:CoN
*  2024 04 04  1 15  0.00000000
PC06 -16909.867918  33322.444086  19318.427701    320.254461
PC07  -4827.969734  37123.652375  19681.510762   -853.359546
PC08  -7800.804787  18824.564300 -36921.981893      5.719265
PC09 -11598.755207  31996.138097  24939.324089   -713.062109
PC10   1963.032237  40187.847126  13839.137668     16.491583
PC11   4331.497311 -24400.072884  12890.438174    494.016821
PC12  16466.594556 -21901.521155  -5265.328561   -225.552437
PC13    867.248401  22259.917275 -35603.984014    429.097193
PC14  -6702.805059 -24771.915582  10901.524918    560.545369
PC16 -21241.656422  32979.663184  15273.015245   -436.589813
PC19  13572.484651  24325.761186  -1910.783118   -915.822172
PC20    323.112698  22199.926288 -16913.322423   -324.075559
PC21  14457.533548  -6254.349529  23056.194025   -962.107862
PC22  19803.180346  12661.283805  15070.554713    -51.175389
PC23 -25643.493893  -5883.629215  -9307.693671   -775.503996
PC24  10854.899981 -15296.379662 -20672.739208    945.573413
PC25 -11127.412681 -14556.981908 -21065.390529    365.998303
PC26  25504.091926  -7516.367494  -8438.164089   -272.218596
PC27 -19008.434348  15665.950235  13080.792495    294.051362
PC28 -16998.262393  -1191.325496  22101.141876    224.637132
PC29   4372.158930  20451.831235 -18481.174684    263.477887
PC30 -10564.134095  25666.501718  -2775.482681    -49.461630
PC32 -14422.857567   6326.038743 -23015.870642   -595.126029
PC33 -13624.476549 -24253.009171   2057.748149   -966.434578
PC34   9539.317011 -25888.615032   4257.919302    404.583004
PC35  17047.736055    790.691814 -22102.275957    395.423162
PC36  10472.506871  14891.754528  21165.588274     40.162302
PC37 -25848.854695   6735.438225   8124.457153   -953.027002
PC38 -16224.434103  18349.470410 -34293.360932    146.841812
PC39 -23805.065839  33436.232296   9194.087294     -7.833274
PC40  -8671.691301  34225.802154  23248.878748    -63.825498
PC41 -19819.165363 -13338.450835 -14348.604811   -917.934078
PC42   1135.777495 -21286.295431  18038.462196   -444.159436
PC43  -3670.904510 -21138.142906  17844.524132     66.666994
PC44  18522.764536 -16213.733513 -13194.320418    433.200249
PC45  25626.018994   5887.908934   9311.374544    -78.703046
PC46 -10073.259903  15321.768719  21037.805942   -137.079069
PE02  14926.637541  -9832.135951 -23601.907712    116.604103
PE03  12379.369264 -21046.251547  16726.440285   -104.819743
PE04   -292.017696  29586.343457    949.039413   -365.261016
PE05  16978.797319   -361.108087  24253.511860   4735.268660
PE07 -11488.011682 -21002.610171 -17390.842906   -112.598168
PE08    827.329697 -29581.250058   -167.206860   -249.423426
PE09  11346.821142  21102.868798  17399.512579   -394.425449
PE10   4349.936766  15674.992253 -24735.966109   -614.419560
PE11  15043.477004   9359.844106 -23727.725785   3090.110426
PE12  -5771.759746  19072.221553 -21883.738818   -978.265362
PE13 -14398.662310  -9739.633627  23956.949450    -20.841288
PE15   6410.315528 -19154.254020  21647.182909    -95.046646
PE18  18745.942173  -3873.914198 -21687.738254    510.876773
PE19 -13288.046499  19188.018203 -18191.381946   -308.813442
PE21 -25992.143280  -5760.923410  12932.858647   -587.405967
PE24  22025.760386  18822.551070   5986.958982   -687.940569
PE25  26079.040206   6078.375417 -12610.297580      2.921071
PE26 -26627.517920   5590.936695  11650.734220    415.629877
PE27 -22286.153855 -18633.967447  -5712.805858   -315.473274
PE30  -5221.509903 -20390.239351 -20833.476174   -162.607635
PE31   5481.616879  20365.217009  20767.549818    -19.926471
PE33 -23440.321618  16984.036211  -6176.395178      9.936171
PE34  23116.468949 -17237.970450   6680.777635   -103.691042
PE36  26457.318951  -5214.644103 -12226.098182   -208.459793
PG01    783.841585  15714.389298 -21691.753766    177.744279
PG02  -9525.729254  19120.920501 -15120.837504   -459.327207
PG03   3661.397254  17499.233533 -19831.762897    290.758212
PG04  -1708.660662  26419.271421   -844.203681    330.589805
PG05  10963.761208 -10840.314822  21462.633644   -167.844363
PG06  23259.255516  -3508.774937 -12379.881071    338.326410
PG07  10970.289441  11638.163811  21753.854212    -99.385053
PG08  -6565.326681  23400.356770  10079.626232     99.831838
PG09   8292.752468  22513.304107  11256.778306    147.832292
PG10 -24099.539821 -10388.784869  -4882.261294     -5.159364
PG11  23809.034570 -11704.804757   -431.962936   -626.420375
PG12  -1028.293283 -17664.261674 -20112.992371   -493.344669
PG13  13184.550644 -16805.601130  15434.067513    639.790576
PG14  23159.309053  13139.800211  -1487.846146    367.417118
PG15   3631.322705 -24213.757507   9545.422911    144.670349
PG16 -16152.833758   5687.511327  20085.053335   -325.374343
PG17  12751.847532  11652.360346 -19711.257915    711.049194
PG18 -11299.979571 -10556.388211  21629.123422   -588.127248
PG19  15021.779117   1797.389042 -22014.566592    463.253356
PG20  20759.483702  -4382.272556  15945.861483    381.482552
PG21 -13682.874360  18943.903319 -11145.834241    128.685407
PG22  23058.720696   8740.072079  -9048.526142      5.810600
PG23 -19956.303142 -16280.678333   6916.771751    192.520072
PG24  10254.433234 -20016.617379 -14215.611307   -455.079219
PG25 -11961.876673 -18919.814391 -14836.970927    492.951094
PG26 -23737.766610  -1603.437812  12021.884070    171.297145
PG27 -12737.735690  13850.101227  18282.572537    -16.399051
PG28 -22219.439029   1774.591120 -14454.211514   -189.488362
PG29  -4619.240871 -24207.793835   9708.274314   -602.961198
PG30  19982.590162   3461.783744  17424.592853   -410.358699
PG31 -24700.621349   8851.574700  -5534.697059   -228.033062
PG32 -14399.525849  -8176.587387 -20600.211634   -617.542530
PJ02 -26734.120676  21764.546035  29372.400976     -3.645331
PJ03 -35224.275741  23155.407817   2808.321518     -0.114066
PJ04 -20087.953143  25597.242816 -21726.305375     50.532718
PR01  -3753.780987 -22557.691824  11293.350188     81.500454
PR02 -11377.125899 -22066.703640  -5946.289095    -22.671759
PR03 -13427.936328  -8716.312299 -19825.316799     97.591916
PR04  -7811.524275   8864.185732 -22569.491733    230.471498
PR05   1738.343741  21778.809007 -13130.355974    129.435836
PR07  13295.898270   7696.503219  20395.298887     79.436604
PR08   7750.807745  -9249.618018  22543.411425    -74.959451
PR09  16293.974150  10288.825029  16774.411889    179.051364
PR11  20975.238426  -3827.014352 -14007.506404     29.091036
PR12   2795.334438 -10716.130711 -22956.949139     38.583054
PR13 -13874.084161 -10803.745476 -18496.553754    -45.938365
PR14 -25142.869432  -4045.330041  -1259.149622     26.324268
PR15 -19977.609958   4497.802931  15220.335798     80.798637
PR16  -2997.801023  10548.058769  23034.824728     24.517153
PR17 -15011.168490   3829.694411  20280.095409     74.870164
PR18 -18000.542811  16330.264070   7661.785944    135.412115
PR19 -13485.598543  20339.565338  -7420.742685   -271.790914
PR20   2243.280931  12384.702262 -22172.546199   -110.725575
PR21  14978.412536  -3751.684607 -20300.342114    -89.887876
PR22  18414.046810 -16435.428334  -6452.481206    115.335733
PR24  -3552.664127 -12179.939191  22140.506562    -50.420098
PR25  15427.458655  -3192.056098 -20053.597193    -26.892869
PR26   8244.777795  -8144.933268  22746.159232    -26.797972
EOF
